ONEWEB-0424             
1 50497U 21132AE  26064.85798166  .00000077  00000+0  16243-3 0  9994
2 50497  87.9249 355.9728 0002167  77.4888 282.6486 13.18686663208029
ONEWEB-0426             
1 50498U 21132AF  26064.81838568  .00000022  00000+0  24120-4 0  9996
2 50498  87.9254 355.9712 0001355  62.8869 297.2401 13.18686737207967
ONEWEB-0427             
1 50499U 21132AG  26064.85631743  .00001097  00000+0  27501-2 0  9994
2 50499  87.9252 355.9509 0001894  70.1070 290.0267 13.18698350207992
ONEWEB-0429             
1 50500U 21132AH  26064.23612032  .00000154  00000+0  35681-3 0  9991
2 50500  87.9247 356.1066 0001810  83.4440 276.6898 13.18685967207884
ONEWEB-0430             
1 50501U 21132AJ  26064.75571049  .00000058  00000+0  11535-3 0  9996
2 50501  87.9252 356.0009 0002043  82.3195 277.8169 13.18686744207991
ONEWEB-0432             
1 50502U 21132AK  26064.86466899  .00000047  00000+0  85434-4 0  9993
2 50502  87.9250 355.9478 0002362  67.0664 293.0717 13.18644737207965
ONEWEB-0440             
1 50503U 21132AL  26064.85138010  .00000050  00000+0  94229-4 0  9990
2 50503  87.9251 355.9711 0001477  87.9008 272.2294 13.18686172207953
ONEWEB-0450             
1 50504U 21132AM  26064.23791003  .00000124  00000+0  28188-3 0  9992
2 50504  87.9242 356.1084 0001906  88.0412 272.0938 13.18685524207906
ONEWEB-0410             
1 51622U 22012A   26064.86816685  .00000061  00000+0  12492-3 0  9996
2 51622  87.9152  26.3641 0001951  38.5609 321.5662 13.17649217200096
ONEWEB-0411             
1 51623U 22012B   26064.93036593 -.00000596  00000+0 -17438-2 0  9996
2 51623  87.8774  56.8231 0002415  91.6790 268.4614 13.10374993195768
ONEWEB-0415             
1 51624U 22012C   26064.92704921 -.00000567  00000+0 -16620-2 0  9993
2 51624  87.8766  56.8262 0002189  88.8464 271.2915 13.10374564195768
ONEWEB-0416             
1 51625U 22012D   26064.93867593 -.00000201  00000+0 -61249-3 0  9993
2 51625  87.8775  56.8444 0002269  80.0086 280.1297 13.10376425195809
ONEWEB-0422             
1 51626U 22012E   26064.87828652  .00000069  00000+0  14353-3 0  9994
2 51626  87.9156  26.3651 0001758 103.4603 256.6725 13.17649080200205
ONEWEB-0423             
1 51627U 22012F   26064.94745872 -.00000158  00000+0 -44090-3 0  9997
2 51627  87.9153  26.3608 0001769  81.0406 279.0926 13.17648790200107
ONEWEB-0425             
1 51628U 22012G   26064.94864485  .00000268  00000+0  73063-3 0  9992
2 51628  87.8779  56.8200 0001691  75.9930 284.1385 13.10376118195806
ONEWEB-0428             
1 51629U 22012H   26064.92870660 -.00000567  00000+0 -16607-2 0  9997
2 51629  87.8768  56.8375 0001803  88.1214 272.0120 13.10374379195769
ONEWEB-0431             
1 51630U 22012J   26064.89872667  .00000370  00000+0  10232-2 0  9992
2 51630  87.8773  56.8282 0002406  97.9799 262.1601 13.10370232195814
