[{"OBJECT_NAME":"ONEWEB-0424","OBJECT_ID":"2021-132AE","EPOCH":"2026-03-05T20:35:29.615424","MEAN_MOTION":13.18686663,"ECCENTRICITY":0.0002167,"INCLINATION":87.9249,"RA_OF_ASC_NODE":355.9728,"ARG_OF_PERICENTER":77.4888,"MEAN_ANOMALY":282.6486,"EPHEMERIS_TYPE":0,"CLASSIFICATION_TYPE":"U","NORAD_CAT_ID":50497,"ELEMENT_SET_NO":999,"REV_AT_EPOCH":20802,"BSTAR":0.00016242981,"MEAN_MOTION_DOT":7.7e-7,"MEAN_MOTION_DDOT":0},{"OBJECT_NAME":"ONEWEB-0426","OBJECT_ID":"2021-132AF","EPOCH":"2026-03-05T19:38:28.522752","MEAN_MOTION":13.18686737,"ECCENTRICITY":0.00013557,"INCLINATION":87.9254,"RA_OF_ASC_NODE":355.9712,"ARG_OF_PERICENTER":62.8869,"MEAN_ANOMALY":297.2401,"EPHEMERIS_TYPE":0,"CLASSIFICATION_TYPE":"U","NORAD_CAT_ID":50498,"ELEMENT_SET_NO":999,"REV_AT_EPOCH":20796,"BSTAR":2.4120114e-5,"MEAN_MOTION_DOT":2.2e-7,"MEAN_MOTION_DDOT":0},{"OBJECT_NAME":"ONEWEB-0427","OBJECT_ID":"2021-132AG","EPOCH":"2026-03-05T20:33:05.825952","MEAN_MOTION":13.1869835,"ECCENTRICITY":0.00018941,"INCLINATION":87.9252,"RA_OF_ASC_NODE":355.9509,"ARG_OF_PERICENTER":70.107,"MEAN_ANOMALY":290.0267,"EPHEMERIS_TYPE":0,"CLASSIFICATION_TYPE":"U","NORAD_CAT_ID":50499,"ELEMENT_SET_NO":999,"REV_AT_EPOCH":20799,"BSTAR":0.0027500657,"MEAN_MOTION_DOT":1.097e-5,"MEAN_MOTION_DDOT":0},{"OBJECT_NAME":"ONEWEB-0429","OBJECT_ID":"2021-132AH","EPOCH":"2026-03-05T05:40:00.795648","MEAN_MOTION":13.18685967,"ECCENTRICITY":0.000181,"INCLINATION":87.9247,"RA_OF_ASC_NODE":356.1066,"ARG_OF_PERICENTER":83.444,"MEAN_ANOMALY":276.6898,"EPHEMERIS_TYPE":0,"CLASSIFICATION_TYPE":"U","NORAD_CAT_ID":50500,"ELEMENT_SET_NO":999,"REV_AT_EPOCH":20788,"BSTAR":0.00035681,"MEAN_MOTION_DOT":1.54e-6,"MEAN_MOTION_DDOT":0},{"OBJECT_NAME":"ONEWEB-0430","OBJECT_ID":"2021-132AJ","EPOCH":"2026-03-05T18:08:13.386336","MEAN_MOTION":13.18686744,"ECCENTRICITY":0.00020435,"INCLINATION":87.9252,"RA_OF_ASC_NODE":356.0009,"ARG_OF_PERICENTER":82.3195,"MEAN_ANOMALY":277.8169,"EPHEMERIS_TYPE":0,"CLASSIFICATION_TYPE":"U","NORAD_CAT_ID":50501,"ELEMENT_SET_NO":999,"REV_AT_EPOCH":20799,"BSTAR":0.00011535257,"MEAN_MOTION_DOT":5.8e-7,"MEAN_MOTION_DDOT":0},{"OBJECT_NAME":"ONEWEB-0432","OBJECT_ID":"2021-132AK","EPOCH":"2026-03-05T20:45:07.400736","MEAN_MOTION":13.18644737,"ECCENTRICITY":0.00023626,"INCLINATION":87.925,"RA_OF_ASC_NODE":355.9478,"ARG_OF_PERICENTER":67.0664,"MEAN_ANOMALY":293.0717,"EPHEMERIS_TYPE":0,"CLASSIFICATION_TYPE":"U","NORAD_CAT_ID":50502,"ELEMENT_SET_NO":999,"REV_AT_EPOCH":20796,"BSTAR":8.5433647e-5,"MEAN_MOTION_DOT":4.7e-7,"MEAN_MOTION_DDOT":0},{"OBJECT_NAME":"ONEWEB-0440","OBJECT_ID":"2021-132AL","EPOCH":"2026-03-05T20:25:59.240640","MEAN_MOTION":13.18686172,"ECCENTRICITY":0.00014773,"INCLINATION":87.9251,"RA_OF_ASC_NODE":355.9711,"ARG_OF_PERICENTER":87.9008,"MEAN_ANOMALY":272.2294,"EPHEMERIS_TYPE":0,"CLASSIFICATION_TYPE":"U","NORAD_CAT_ID":50503,"ELEMENT_SET_NO":999,"REV_AT_EPOCH":20795,"BSTAR":9.4228766e-5,"MEAN_MOTION_DOT":5.0e-7,"MEAN_MOTION_DDOT":0},{"OBJECT_NAME":"ONEWEB-0450","OBJECT_ID":"2021-132AM","EPOCH":"2026-03-05T05:42:35.426592","MEAN_MOTION":13.18685524,"ECCENTRICITY":0.0001906,"INCLINATION":87.9242,"RA_OF_ASC_NODE":356.1084,"ARG_OF_PERICENTER":88.0412,"MEAN_ANOMALY":272.0938,"EPHEMERIS_TYPE":0,"CLASSIFICATION_TYPE":"U","NORAD_CAT_ID":50504,"ELEMENT_SET_NO":999,"REV_AT_EPOCH":20790,"BSTAR":0.00028188,"MEAN_MOTION_DOT":1.24e-6,"MEAN_MOTION_DDOT":0},{"OBJECT_NAME":"ONEWEB-0410","OBJECT_ID":"2022-012A","EPOCH":"2026-03-05T20:50:09.615840","MEAN_MOTION":13.17649217,"ECCENTRICITY":0.00019513,"INCLINATION":87.9152,"RA_OF_ASC_NODE":26.3641,"ARG_OF_PERICENTER":38.5609,"MEAN_ANOMALY":321.5662,"EPHEMERIS_TYPE":0,"CLASSIFICATION_TYPE":"U","NORAD_CAT_ID":51622,"ELEMENT_SET_NO":999,"REV_AT_EPOCH":20009,"BSTAR":0.00012491959,"MEAN_MOTION_DOT":6.1e-7,"MEAN_MOTION_DDOT":0},{"OBJECT_NAME":"ONEWEB-0411","OBJECT_ID":"2022-012B","EPOCH":"2026-03-05T22:19:43.616352","MEAN_MOTION":13.10374993,"ECCENTRICITY":0.00024155,"INCLINATION":87.8774,"RA_OF_ASC_NODE":56.8231,"ARG_OF_PERICENTER":91.679,"MEAN_ANOMALY":268.4614,"EPHEMERIS_TYPE":0,"CLASSIFICATION_TYPE":"U","NORAD_CAT_ID":51623,"ELEMENT_SET_NO":999,"REV_AT_EPOCH":19576,"BSTAR":-0.0017437604,"MEAN_MOTION_DOT":-5.96e-6,"MEAN_MOTION_DDOT":0},{"OBJECT_NAME":"ONEWEB-0415","OBJECT_ID":"2022-012C","EPOCH":"2026-03-05T22:14:57.051744","MEAN_MOTION":13.10374564,"ECCENTRICITY":0.00021895,"INCLINATION":87.8766,"RA_OF_ASC_NODE":56.8262,"ARG_OF_PERICENTER":88.8464,"MEAN_ANOMALY":271.2915,"EPHEMERIS_TYPE":0,"CLASSIFICATION_TYPE":"U","NORAD_CAT_ID":51624,"ELEMENT_SET_NO":999,"REV_AT_EPOCH":19576,"BSTAR":-0.0016619748,"MEAN_MOTION_DOT":-5.67e-6,"MEAN_MOTION_DDOT":0},{"OBJECT_NAME":"ONEWEB-0416","OBJECT_ID":"2022-012D","EPOCH":"2026-03-05T22:31:41.600352","MEAN_MOTION":13.10376425,"ECCENTRICITY":0.00022693,"INCLINATION":87.8775,"RA_OF_ASC_NODE":56.8444,"ARG_OF_PERICENTER":80.0086,"MEAN_ANOMALY":280.1297,"EPHEMERIS_TYPE":0,"CLASSIFICATION_TYPE":"U","NORAD_CAT_ID":51625,"ELEMENT_SET_NO":999,"REV_AT_EPOCH":19580,"BSTAR":-0.00061249052,"MEAN_MOTION_DOT":-2.01e-6,"MEAN_MOTION_DDOT":0},{"OBJECT_NAME":"ONEWEB-0422","OBJECT_ID":"2022-012E","EPOCH":"2026-03-05T21:04:43.955328","MEAN_MOTION":13.1764908,"ECCENTRICITY":0.00017588,"INCLINATION":87.9156,"RA_OF_ASC_NODE":26.3651,"ARG_OF_PERICENTER":103.4603,"MEAN_ANOMALY":256.6725,"EPHEMERIS_TYPE":0,"CLASSIFICATION_TYPE":"U","NORAD_CAT_ID":51626,"ELEMENT_SET_NO":999,"REV_AT_EPOCH":20020,"BSTAR":0.00014353094,"MEAN_MOTION_DOT":6.9e-7,"MEAN_MOTION_DDOT":0},{"OBJECT_NAME":"ONEWEB-0423","OBJECT_ID":"2022-012F","EPOCH":"2026-03-05T22:44:20.433408","MEAN_MOTION":13.1764879,"ECCENTRICITY":0.00017693,"INCLINATION":87.9153,"RA_OF_ASC_NODE":26.3608,"ARG_OF_PERICENTER":81.0406,"MEAN_ANOMALY":279.0926,"EPHEMERIS_TYPE":0,"CLASSIFICATION_TYPE":"U","NORAD_CAT_ID":51627,"ELEMENT_SET_NO":999,"REV_AT_EPOCH":20010,"BSTAR":-0.00044090067,"MEAN_MOTION_DOT":-1.58e-6,"MEAN_MOTION_DDOT":0},{"OBJECT_NAME":"ONEWEB-0425","OBJECT_ID":"2022-012G","EPOCH":"2026-03-05T22:46:02.915040","MEAN_MOTION":13.10376118,"ECCENTRICITY":0.00016914,"INCLINATION":87.8779,"RA_OF_ASC_NODE":56.82,"ARG_OF_PERICENTER":75.993,"MEAN_ANOMALY":284.1385,"EPHEMERIS_TYPE":0,"CLASSIFICATION_TYPE":"U","NORAD_CAT_ID":51628,"ELEMENT_SET_NO":999,"REV_AT_EPOCH":19580,"BSTAR":0.00073062776,"MEAN_MOTION_DOT":2.68e-6,"MEAN_MOTION_DDOT":0},{"OBJECT_NAME":"ONEWEB-0428","OBJECT_ID":"2022-012H","EPOCH":"2026-03-05T22:17:20.250240","MEAN_MOTION":13.10374379,"ECCENTRICITY":0.00018039,"INCLINATION":87.8768,"RA_OF_ASC_NODE":56.8375,"ARG_OF_PERICENTER":88.1214,"MEAN_ANOMALY":272.012,"EPHEMERIS_TYPE":0,"CLASSIFICATION_TYPE":"U","NORAD_CAT_ID":51629,"ELEMENT_SET_NO":999,"REV_AT_EPOCH":19576,"BSTAR":-0.0016607183,"MEAN_MOTION_DOT":-5.67e-6,"MEAN_MOTION_DDOT":0},{"OBJECT_NAME":"ONEWEB-0431","OBJECT_ID":"2022-012J","EPOCH":"2026-03-05T21:34:09.984288","MEAN_MOTION":13.10370232,"ECCENTRICITY":0.00024069,"INCLINATION":87.8773,"RA_OF_ASC_NODE":56.8282,"ARG_OF_PERICENTER":97.9799,"MEAN_ANOMALY":262.1601,"EPHEMERIS_TYPE":0,"CLASSIFICATION_TYPE":"U","NORAD_CAT_ID":51630,"ELEMENT_SET_NO":999,"REV_AT_EPOCH":19581,"BSTAR":0.0010231788,"MEAN_MOTION_DOT":3.7e-6,"MEAN_MOTION_DDOT":0}]
